GOES 19                 
1 60133U 24119A   26094.87438098 -.00000248  00000+0  00000+0 0  9991
2 60133   0.0448  39.8414 0000976  21.0955  11.8262  1.00271610  6222
FENGYUN 3H              
1 65815U 25219A   26094.89737840  .00000147  00000+0  89796-4 0  9995
2 65815  98.6720  37.1121 0000716  69.3956 290.7298 14.19939981 26982
