[{"OBJECT_NAME":"GOES 19","OBJECT_ID":"2024-119A","EPOCH":"2026-04-04T20:59:06.516672","MEAN_MOTION":1.0027161,"ECCENTRICITY":9.763e-5,"INCLINATION":0.0448,"RA_OF_ASC_NODE":39.8414,"ARG_OF_PERICENTER":21.0955,"MEAN_ANOMALY":11.8262,"EPHEMERIS_TYPE":0,"CLASSIFICATION_TYPE":"U","NORAD_CAT_ID":60133,"ELEMENT_SET_NO":999,"REV_AT_EPOCH":622,"BSTAR":0,"MEAN_MOTION_DOT":-2.48e-6,"MEAN_MOTION_DDOT":0},{"OBJECT_NAME":"FENGYUN 3H","OBJECT_ID":"2025-219A","EPOCH":"2026-04-04T21:32:13.493760","MEAN_MOTION":14.19939981,"ECCENTRICITY":7.165e-5,"INCLINATION":98.672,"RA_OF_ASC_NODE":37.1121,"ARG_OF_PERICENTER":69.3956,"MEAN_ANOMALY":290.7298,"EPHEMERIS_TYPE":0,"CLASSIFICATION_TYPE":"U","NORAD_CAT_ID":65815,"ELEMENT_SET_NO":999,"REV_AT_EPOCH":2698,"BSTAR":8.9796261e-5,"MEAN_MOTION_DOT":1.47e-6,"MEAN_MOTION_DDOT":0}]
